{
  "type": "FeatureCollection",
  "features": [
    {
      "type": "Feature",
      "properties": {
        "norad_id": 19071,
        "name": "OSCAR 32",
        "group": "nnss",
        "lat": 56.46185578789529,
        "lon": 16.097262942766243,
        "alt_km": 1183.565640485649,
        "timestamp": "2025-12-14T14:39:29.639118+00:00",
        "meta_object_name": "OSCAR 32",
        "meta_object_id": "1988-033B",
        "meta_epoch": "2025-12-14T00:13:01.183872",
        "meta_mean_motion": 13.27954143,
        "meta_eccentricity": 0.01884669,
        "meta_inclination": 90.3217,
        "meta_ra_of_asc_node": 16.5641,
        "meta_arg_of_pericenter": 163.2675,
        "meta_mean_anomaly": 260.4256,
        "meta_ephemeris_type": 0,
        "meta_classification_type": "U",
        "meta_norad_cat_id": 19071,
        "meta_element_set_no": 999,
        "meta_rev_at_epoch": 82282,
        "meta_bstar": 0.00018737662,
        "meta_mean_motion_dot": 1.02e-06,
        "meta_mean_motion_ddot": 0,
        "tle_line1": "1 19071U 88033B   25348.00904148  .00000102  00000+0  18738-3 0  9990",
        "tle_line2": "2 19071  90.3217  16.5641 0188466 163.2675 260.4256 13.27954143822824"
      },
      "geometry": {
        "type": "Point",
        "coordinates": [
          16.097262942766243,
          56.46185578789529
        ]
      }
    },
    {
      "type": "Feature",
      "properties": {
        "norad_id": 19223,
        "name": "NOVA 2",
        "group": "nnss",
        "lat": -42.00541248321744,
        "lon": -101.71822302643305,
        "alt_km": 1200.043030588583,
        "timestamp": "2025-12-14T14:39:29.639129+00:00",
        "meta_object_name": "NOVA 2",
        "meta_object_id": "1988-052A",
        "meta_epoch": "2025-12-13T23:53:41.942976",
        "meta_mean_motion": 13.22935962,
        "meta_eccentricity": 0.00304858,
        "meta_inclination": 89.9872,
        "meta_ra_of_asc_node": 78.271,
        "meta_arg_of_pericenter": 13.4888,
        "meta_mean_anomaly": 160.6735,
        "meta_ephemeris_type": 0,
        "meta_classification_type": "U",
        "meta_norad_cat_id": 19223,
        "meta_element_set_no": 999,
        "meta_rev_at_epoch": 80964,
        "meta_bstar": 0.00012856072,
        "meta_mean_motion_dot": 6.3e-07,
        "meta_mean_motion_ddot": 0,
        "tle_line1": "1 19223U 88052A   25347.99562434  .00000063  00000+0  12856-3 0  9996",
        "tle_line2": "2 19223  89.9872  78.2710 0030485  13.4888 160.6735 13.22935962809646"
      },
      "geometry": {
        "type": "Point",
        "coordinates": [
          -101.71822302643305,
          -42.00541248321744
        ]
      }
    },
    {
      "type": "Feature",
      "properties": {
        "norad_id": 19419,
        "name": "OSCAR 25",
        "group": "nnss",
        "lat": 70.48519966228868,
        "lon": 20.15277376742402,
        "alt_km": 1162.365648286731,
        "timestamp": "2025-12-14T14:39:29.639139+00:00",
        "meta_object_name": "OSCAR 25",
        "meta_object_id": "1988-074A",
        "meta_epoch": "2025-12-14T00:18:39.960864",
        "meta_mean_motion": 13.42623499,
        "meta_eccentricity": 0.0094498,
        "meta_inclination": 90.0346,
        "meta_ra_of_asc_node": 20.2484,
        "meta_arg_of_pericenter": 242.1466,
        "meta_mean_anomaly": 180.8505,
        "meta_ephemeris_type": 0,
        "meta_classification_type": "U",
        "meta_norad_cat_id": 19419,
        "meta_element_set_no": 999,
        "meta_rev_at_epoch": 82657,
        "meta_bstar": 0.00019235287,
        "meta_mean_motion_dot": 1.2e-06,
        "meta_mean_motion_ddot": 0,
        "tle_line1": "1 19419U 88074A   25348.01296251  .00000120  00000+0  19235-3 0  9994",
        "tle_line2": "2 19419  90.0346  20.2484 0094498 242.1466 180.8505 13.42623499826575"
      },
      "geometry": {
        "type": "Point",
        "coordinates": [
          20.15277376742402,
          70.48519966228868
        ]
      }
    },
    {
      "type": "Feature",
      "properties": {
        "norad_id": 19420,
        "name": "OSCAR 31",
        "group": "nnss",
        "lat": -44.81736408708939,
        "lon": 20.636887346572305,
        "alt_km": 1094.5722639955602,
        "timestamp": "2025-12-14T14:39:29.639148+00:00",
        "meta_object_name": "OSCAR 31",
        "meta_object_id": "1988-074B",
        "meta_epoch": "2025-12-13T20:04:48.332928",
        "meta_mean_motion": 13.42584726,
        "meta_eccentricity": 0.00928134,
        "meta_inclination": 90.0363,
        "meta_ra_of_asc_node": 20.598,
        "meta_arg_of_pericenter": 236.783,
        "meta_mean_anomaly": 298.2383,
        "meta_ephemeris_type": 0,
        "meta_classification_type": "U",
        "meta_norad_cat_id": 19420,
        "meta_element_set_no": 999,
        "meta_rev_at_epoch": 82665,
        "meta_bstar": 0.00016370877,
        "meta_mean_motion_dot": 1.03e-06,
        "meta_mean_motion_ddot": 0,
        "tle_line1": "1 19420U 88074B   25347.83667052  .00000103  00000+0  16371-3 0  9995",
        "tle_line2": "2 19420  90.0363  20.5980 0092813 236.7830 298.2383 13.42584726826659"
      },
      "geometry": {
        "type": "Point",
        "coordinates": [
          20.636887346572305,
          -44.81736408708939
        ]
      }
    }
  ]
}